{
    "links": {
        "self": "http://www.neowsapp.com/rest/v1/neo/3515454?api_key=iIulBulltgU6a56xZRHN4H3l9WmuAYTsLGpBGhQ2"
    },
    "id": "3515454",
    "neo_reference_id": "3515454",
    "name": "(2010 GY23)",
    "designation": "2010 GY23",
    "nasa_jpl_url": "http://ssd.jpl.nasa.gov/sbdb.cgi?sstr=3515454",
    "absolute_magnitude_h": 25.2,
    "estimated_diameter": {
        "kilometers": {
            "estimated_diameter_min": 0.0242412481,
            "estimated_diameter_max": 0.0542050786
        },
        "meters": {
            "estimated_diameter_min": 24.2412481101,
            "estimated_diameter_max": 54.2050786336
        },
        "miles": {
            "estimated_diameter_min": 0.0150628086,
            "estimated_diameter_max": 0.0336814639
        },
        "feet": {
            "estimated_diameter_min": 79.5316564495,
            "estimated_diameter_max": 177.8381901842
        }
    },
    "is_potentially_hazardous_asteroid": false,
    "close_approach_data": [
        {
            "close_approach_date": "2010-03-22",
            "close_approach_date_full": "2010-Mar-22 01:49",
            "epoch_date_close_approach": 1269222540000,
            "relative_velocity": {
                "kilometers_per_second": "4.1353042591",
                "kilometers_per_hour": "14887.0953326386",
                "miles_per_hour": "9250.2620971053"
            },
            "miss_distance": {
                "astronomical": "0.0644666724",
                "lunar": "25.0775355636",
                "kilometers": "9644076.877027788",
                "miles": "5992551.4930799544"
            },
            "orbiting_body": "Earth"
        }
    ],
    "orbital_data": {
        "orbit_id": "10",
        "orbit_determination_date": "2017-04-06 08:57:52",
        "first_observation_date": "2010-04-09",
        "last_observation_date": "2010-05-05",
        "data_arc_in_days": 26,
        "observations_used": 29,
        "orbit_uncertainty": "8",
        "minimum_orbit_intersection": ".0601964",
        "jupiter_tisserand_invariant": "4.509",
        "epoch_osculation": "2455298.5",
        "eccentricity": ".2926014196181583",
        "semi_major_axis": "1.491205373075774",
        "inclination": "5.08174298490331",
        "ascending_node_longitude": "190.326226500181",
        "orbital_period": "665.1270594443452",
        "perihelion_distance": "1.054876563971577",
        "perihelion_argument": "346.97609237",
        "aphelion_distance": "1.927534182179971",
        "perihelion_time": "2455272.678857361196",
        "mean_anomaly": "13.97569264094457",
        "mean_motion": ".5412499685409705",
        "equinox": "J2000",
        "orbit_class": {
            "orbit_class_type": "AMO",
            "orbit_class_description": "Near-Earth asteroid orbits similar to that of 1221 Amor",
            "orbit_class_range": "1.017 AU < q (perihelion) < 1.3 AU"
        }
    },
    "is_sentry_object": false
}